[{"OBJECT_NAME":"STARLINK-35399","OBJECT_ID":"2025-232AA","EPOCH":"2026-02-07T00:02:45.230496","MEAN_MOTION":15.30206414,"ECCENTRICITY":9.243e-5,"INCLINATION":53.1559,"RA_OF_ASC_NODE":246.6907,"ARG_OF_PERICENTER":103.6469,"MEAN_ANOMALY":256.4635,"EPHEMERIS_TYPE":0,"CLASSIFICATION_TYPE":"U","NORAD_CAT_ID":66029,"ELEMENT_SET_NO":999,"REV_AT_EPOCH":1873,"BSTAR":0.0010055016,"MEAN_MOTION_DOT":0.00029545,"MEAN_MOTION_DDOT":0},{"OBJECT_NAME":"STARLINK-35431","OBJECT_ID":"2025-232AB","EPOCH":"2026-02-06T23:53:39.794208","MEAN_MOTION":15.30192555,"ECCENTRICITY":0.00015079,"INCLINATION":53.1568,"RA_OF_ASC_NODE":246.6509,"ARG_OF_PERICENTER":66.4694,"MEAN_ANOMALY":293.6466,"EPHEMERIS_TYPE":0,"CLASSIFICATION_TYPE":"U","NORAD_CAT_ID":66030,"ELEMENT_SET_NO":999,"REV_AT_EPOCH":1873,"BSTAR":0.0016698322,"MEAN_MOTION_DOT":0.00049415,"MEAN_MOTION_DDOT":0},{"OBJECT_NAME":"STARLINK-35326","OBJECT_ID":"2025-232AC","EPOCH":"2026-02-06T20:51:36.544608","MEAN_MOTION":15.30199731,"ECCENTRICITY":0.000129,"INCLINATION":53.1558,"RA_OF_ASC_NODE":247.277,"ARG_OF_PERICENTER":67.9184,"MEAN_ANOMALY":292.1953,"EPHEMERIS_TYPE":0,"CLASSIFICATION_TYPE":"U","NORAD_CAT_ID":66031,"ELEMENT_SET_NO":999,"REV_AT_EPOCH":1871,"BSTAR":0.0010152,"MEAN_MOTION_DOT":0.00029829,"MEAN_MOTION_DDOT":0},{"OBJECT_NAME":"STARLINK-35311","OBJECT_ID":"2025-232AD","EPOCH":"2026-02-06T20:36:24.955488","MEAN_MOTION":15.30180357,"ECCENTRICITY":0.00011972,"INCLINATION":53.1574,"RA_OF_ASC_NODE":247.2103,"ARG_OF_PERICENTER":75.7313,"MEAN_ANOMALY":284.382,"EPHEMERIS_TYPE":0,"CLASSIFICATION_TYPE":"U","NORAD_CAT_ID":66032,"ELEMENT_SET_NO":999,"REV_AT_EPOCH":1871,"BSTAR":0.0012915222,"MEAN_MOTION_DOT":0.00038065,"MEAN_MOTION_DDOT":0},{"OBJECT_NAME":"STARLINK-35552","OBJECT_ID":"2025-235A","EPOCH":"2026-02-07T05:47:33.681120","MEAN_MOTION":15.30222584,"ECCENTRICITY":0.00011434,"INCLINATION":53.1596,"RA_OF_ASC_NODE":24.2472,"ARG_OF_PERICENTER":80.061,"MEAN_ANOMALY":280.052,"EPHEMERIS_TYPE":0,"CLASSIFICATION_TYPE":"U","NORAD_CAT_ID":66058,"ELEMENT_SET_NO":999,"REV_AT_EPOCH":1829,"BSTAR":0.001134842,"MEAN_MOTION_DOT":0.00033426,"MEAN_MOTION_DDOT":0},{"OBJECT_NAME":"STARLINK-35560","OBJECT_ID":"2025-235B","EPOCH":"2026-02-07T04:50:45.452544","MEAN_MOTION":15.30209797,"ECCENTRICITY":0.00013021,"INCLINATION":53.1604,"RA_OF_ASC_NODE":26.8837,"ARG_OF_PERICENTER":100.7657,"MEAN_ANOMALY":259.3491,"EPHEMERIS_TYPE":0,"CLASSIFICATION_TYPE":"U","NORAD_CAT_ID":66059,"ELEMENT_SET_NO":999,"REV_AT_EPOCH":1825,"BSTAR":0.001041125,"MEAN_MOTION_DOT":0.00030612,"MEAN_MOTION_DDOT":0},{"OBJECT_NAME":"STARLINK-35558","OBJECT_ID":"2025-235C","EPOCH":"2026-02-07T05:28:42.781152","MEAN_MOTION":15.30146931,"ECCENTRICITY":9.453e-5,"INCLINATION":53.1628,"RA_OF_ASC_NODE":27.0466,"ARG_OF_PERICENTER":82.0359,"MEAN_ANOMALY":278.0749,"EPHEMERIS_TYPE":0,"CLASSIFICATION_TYPE":"U","NORAD_CAT_ID":66060,"ELEMENT_SET_NO":999,"REV_AT_EPOCH":1825,"BSTAR":0.0014058075,"MEAN_MOTION_DOT":0.00041441,"MEAN_MOTION_DDOT":0},{"OBJECT_NAME":"STARLINK-35566","OBJECT_ID":"2025-235D","EPOCH":"2026-02-07T05:57:27.080640","MEAN_MOTION":15.3022332,"ECCENTRICITY":0.00012881,"INCLINATION":53.1615,"RA_OF_ASC_NODE":26.4597,"ARG_OF_PERICENTER":97.9084,"MEAN_ANOMALY":262.2063,"EPHEMERIS_TYPE":0,"CLASSIFICATION_TYPE":"U","NORAD_CAT_ID":66061,"ELEMENT_SET_NO":999,"REV_AT_EPOCH":1826,"BSTAR":0.0012691548,"MEAN_MOTION_DOT":0.00037446,"MEAN_MOTION_DDOT":0},{"OBJECT_NAME":"STARLINK-35421","OBJECT_ID":"2025-235E","EPOCH":"2026-02-07T06:44:33.543456","MEAN_MOTION":15.30217554,"ECCENTRICITY":0.00015594,"INCLINATION":53.1619,"RA_OF_ASC_NODE":26.6677,"ARG_OF_PERICENTER":84.3635,"MEAN_ANOMALY":275.7544,"EPHEMERIS_TYPE":0,"CLASSIFICATION_TYPE":"U","NORAD_CAT_ID":66062,"ELEMENT_SET_NO":999,"REV_AT_EPOCH":1826,"BSTAR":0.0010673816,"MEAN_MOTION_DOT":0.00031405,"MEAN_MOTION_DDOT":0},{"OBJECT_NAME":"STARLINK-35562","OBJECT_ID":"2025-235F","EPOCH":"2026-02-07T05:40:53.957568","MEAN_MOTION":15.30230749,"ECCENTRICITY":0.0001378,"INCLINATION":53.162,"RA_OF_ASC_NODE":27.0992,"ARG_OF_PERICENTER":81.6552,"MEAN_ANOMALY":278.4605,"EPHEMERIS_TYPE":0,"CLASSIFICATION_TYPE":"U","NORAD_CAT_ID":66063,"ELEMENT_SET_NO":999,"REV_AT_EPOCH":1825,"BSTAR":0.0018428244,"MEAN_MOTION_DOT":0.00054675,"MEAN_MOTION_DDOT":0},{"OBJECT_NAME":"STARLINK-35542","OBJECT_ID":"2025-235G","EPOCH":"2026-02-07T06:47:36.779712","MEAN_MOTION":15.3019725,"ECCENTRICITY":0.0001933,"INCLINATION":53.162,"RA_OF_ASC_NODE":26.6821,"ARG_OF_PERICENTER":80.7596,"MEAN_ANOMALY":279.3624,"EPHEMERIS_TYPE":0,"CLASSIFICATION_TYPE":"U","NORAD_CAT_ID":66064,"ELEMENT_SET_NO":999,"REV_AT_EPOCH":1826,"BSTAR":0.00058157024,"MEAN_MOTION_DOT":0.00016903,"MEAN_MOTION_DDOT":0},{"OBJECT_NAME":"STARLINK-35375","OBJECT_ID":"2025-235H","EPOCH":"2026-02-07T05:37:51.133440","MEAN_MOTION":15.30195658,"ECCENTRICITY":0.00010803,"INCLINATION":53.1608,"RA_OF_ASC_NODE":27.0868,"ARG_OF_PERICENTER":112.6625,"MEAN_ANOMALY":247.449,"EPHEMERIS_TYPE":0,"CLASSIFICATION_TYPE":"U","NORAD_CAT_ID":66065,"ELEMENT_SET_NO":999,"REV_AT_EPOCH":1825,"BSTAR":0.0012255867,"MEAN_MOTION_DOT":0.00036111,"MEAN_MOTION_DDOT":0},{"OBJECT_NAME":"STARLINK-35179","OBJECT_ID":"2025-235J","EPOCH":"2026-02-07T05:19:37.837344","MEAN_MOTION":15.30215527,"ECCENTRICITY":0.00014458,"INCLINATION":53.1626,"RA_OF_ASC_NODE":27.0097,"ARG_OF_PERICENTER":88.1783,"MEAN_ANOMALY":271.9383,"EPHEMERIS_TYPE":0,"CLASSIFICATION_TYPE":"U","NORAD_CAT_ID":66066,"ELEMENT_SET_NO":999,"REV_AT_EPOCH":1825,"BSTAR":0.0012131856,"MEAN_MOTION_DOT":0.00035762,"MEAN_MOTION_DDOT":0},{"OBJECT_NAME":"STARLINK-35401","OBJECT_ID":"2025-235K","EPOCH":"2026-02-07T06:35:26.500128","MEAN_MOTION":15.30216641,"ECCENTRICITY":0.00014032,"INCLINATION":53.1611,"RA_OF_ASC_NODE":26.6241,"ARG_OF_PERICENTER":92.9063,"MEAN_ANOMALY":267.2098,"EPHEMERIS_TYPE":0,"CLASSIFICATION_TYPE":"U","NORAD_CAT_ID":66067,"ELEMENT_SET_NO":999,"REV_AT_EPOCH":1823,"BSTAR":0.00092850454,"MEAN_MOTION_DOT":0.00027256,"MEAN_MOTION_DDOT":0},{"OBJECT_NAME":"STARLINK-35422","OBJECT_ID":"2025-235L","EPOCH":"2026-02-07T04:41:38.426496","MEAN_MOTION":15.3020934,"ECCENTRICITY":0.00012381,"INCLINATION":53.1602,"RA_OF_ASC_NODE":26.8412,"ARG_OF_PERICENTER":97.6144,"MEAN_ANOMALY":262.4997,"EPHEMERIS_TYPE":0,"CLASSIFICATION_TYPE":"U","NORAD_CAT_ID":66068,"ELEMENT_SET_NO":999,"REV_AT_EPOCH":1822,"BSTAR":0.0010658319,"MEAN_MOTION_DOT":0.0003135,"MEAN_MOTION_DDOT":0},{"OBJECT_NAME":"STARLINK-35279","OBJECT_ID":"2025-235M","EPOCH":"2026-02-07T04:32:31.372800","MEAN_MOTION":15.3021785,"ECCENTRICITY":0.00010237,"INCLINATION":53.1605,"RA_OF_ASC_NODE":26.8004,"ARG_OF_PERICENTER":65.9253,"MEAN_ANOMALY":294.1855,"EPHEMERIS_TYPE":0,"CLASSIFICATION_TYPE":"U","NORAD_CAT_ID":66069,"ELEMENT_SET_NO":999,"REV_AT_EPOCH":1825,"BSTAR":0.0013288796,"MEAN_MOTION_DOT":0.00039228,"MEAN_MOTION_DDOT":0}]
