STARLINK-35399          
1 66029U 25232AA  26038.00191239  .00029545  00000+0  10055-2 0  9998
2 66029  53.1559 246.6907 0000924 103.6469 256.4635 15.30206414 18737
STARLINK-35431          
1 66030U 25232AB  26037.99559947  .00049415  00000+0  16698-2 0  9998
2 66030  53.1568 246.6509 0001507  66.4694 293.6466 15.30192555 18736
STARLINK-35326          
1 66031U 25232AC  26037.86917297  .00029829  00000+0  10152-2 0  9997
2 66031  53.1558 247.2770 0001290  67.9184 292.1953 15.30199731 18718
STARLINK-35311          
1 66032U 25232AD  26037.85862217  .00038065  00000+0  12915-2 0  9999
2 66032  53.1574 247.2103 0001197  75.7313 284.3820 15.30180357 18714
STARLINK-35552          
1 66058U 25235A   26038.24136205  .00033426  00000+0  11348-2 0  9990
2 66058  53.1596  24.2472 0001143  80.0610 280.0520 15.30222584 18290
STARLINK-35560          
1 66059U 25235B   26038.20191496  .00030612  00000+0  10411-2 0  9994
2 66059  53.1604  26.8837 0001302 100.7657 259.3491 15.30209797 18255
STARLINK-35558          
1 66060U 25235C   26038.22827293  .00041441  00000+0  14058-2 0  9992
2 66060  53.1628  27.0466 0000945  82.0359 278.0749 15.30146931 18251
STARLINK-35566          
1 66061U 25235D   26038.24823010  .00037446  00000+0  12692-2 0  9990
2 66061  53.1615  26.4597 0001288  97.9084 262.2063 15.30223320 18260
STARLINK-35421          
1 66062U 25235E   26038.28094379  .00031405  00000+0  10674-2 0  9990
2 66062  53.1619  26.6677 0001559  84.3635 275.7544 15.30217554 18264
STARLINK-35562          
1 66063U 25235F   26038.23673562  .00054675  00000+0  18428-2 0  9992
2 66063  53.1620  27.0992 0001378  81.6552 278.4605 15.30230749 18257
STARLINK-35542          
1 66064U 25235G   26038.28306458  .00016903  00000+0  58157-3 0  9991
2 66064  53.1620  26.6821 0001933  80.7596 279.3624 15.30197250 18260
STARLINK-35375          
1 66065U 25235H   26038.23461960  .00036111  00000+0  12256-2 0  9999
2 66065  53.1608  27.0868 0001080 112.6625 247.4490 15.30195658 18250
STARLINK-35179          
1 66066U 25235J   26038.22196571  .00035762  00000+0  12132-2 0  9996
2 66066  53.1626  27.0097 0001445  88.1783 271.9383 15.30215527 18253
STARLINK-35401          
1 66067U 25235K   26038.27461227  .00027256  00000+0  92850-3 0  9990
2 66067  53.1611  26.6241 0001403  92.9063 267.2098 15.30216641 18239
STARLINK-35422          
1 66068U 25235L   26038.19558364  .00031350  00000+0  10658-2 0  9996
2 66068  53.1602  26.8412 0001238  97.6144 262.4997 15.30209340 18222
STARLINK-35279          
1 66069U 25235M   26038.18925200  .00039228  00000+0  13289-2 0  9998
2 66069  53.1605  26.8004 0001023  65.9253 294.1855 15.30217850 18257
